STARLINK-3122           
1 49445U 21104AP  24250.00590023 -.00000741  00000+0 -28487-4 0  9992
2 49445  53.2154 167.1384 0001541 106.3926 253.7235 15.08835725156874
STARLINK-3099           
1 49446U 21104AQ  24250.01684782  .00008282  00000+0  53770-3 0  9998
2 49446  53.2167 156.6880 0001881 141.4403 218.6724 15.08848285157004
STARLINK-3115           
1 49447U 21104AR  24250.15945589  .00000136  00000+0  26654-4 0  9991
2 49447  53.2176 166.0523 0001203  84.7076 275.4053 15.08838794156882
STARLINK-3137           
1 49449U 21104AT  24250.15577286  .00004668  00000+0  31111-3 0  9995
2 49449  53.2156 166.0827 0001368 101.0366 259.0780 15.08851686156897
STARLINK-3127           
1 49450U 21104AU  24250.03433615  .00001539  00000+0  11478-3 0  9999
2 49450  53.2160 166.6483 0001293 108.2999 251.8134 15.08838823156864
STARLINK-3125           
1 49451U 21104AV  24250.08585477  .00000952  00000+0  77904-4 0  9994
2 49451  53.2166 166.3917 0001413  77.9761 282.1390 15.08846689156885
STARLINK-3150           
1 49452U 21104AW  24250.00953505  .00000499  00000+0  49450-4 0  9999
2 49452  53.2166 166.7656 0001455 113.9171 246.1973 15.08837022156879
STARLINK-3129           
1 49453U 21104AX  24250.15305456  .00002234  00000+0  15836-3 0  9991
2 49453  53.2172 166.1697 0001439  95.3384 264.7772 15.08851265156886
STARLINK-3160           
1 49454U 21104AY  24250.14840974  .00002225  00000+0  15783-3 0  9991
2 49454  53.2169 166.1048 0001338  93.0612 267.0534 15.08848950156890
STARLINK-3145           
1 49455U 21104AZ  24250.06745553 -.00000533  00000+0 -15416-4 0  9996
2 49455  53.2159 166.4676 0001272  89.3542 270.7596 15.08832560156874
STARLINK-3124           
1 49456U 21104BA  24250.14569449  .00001761  00000+0  12867-3 0  9992
2 49456  53.2180 166.1648 0001433  89.1804 270.9353 15.08848416156884
STARLINK-3132           
1 49457U 21104BB  24250.06473525 -.00000323  00000+0 -22076-5 0  9993
2 49457  53.2162 166.4912 0001354  98.3364 261.7781 15.08834876156874
STARLINK-3156           
1 49458U 21104BC  24250.00489230  .00000112  00000+0  25134-4 0  9999
2 49458  53.2158 166.7460 0001545 110.6843 249.4314 15.08837443156871
STARLINK-3141           
1 49459U 21104BD  24250.19257298  .00000178  00000+0  29300-4 0  9998
2 49459  53.2164 165.9049 0001637 111.9607 248.1559 15.08839509156891
STARLINK-3140           
1 49460U 21104BE  24250.18889242  .00003879  00000+0  26166-3 0  9996
2 49460  53.2158 165.9218 0001561  92.3246 267.7925 15.08841763156902
STARLINK-3219           
1 49724U 21115A   24249.86048210  .00000549  00000+0  52605-4 0  9995
2 49724  53.2157  97.6237 0001405 105.8514 254.2633 15.08838662152526
STARLINK-3218           
1 49725U 21115B   24249.81631095 -.00000244  00000+0  27371-5 0  9996
2 49725  53.2173  97.7034 0001404 128.1741 231.9378 15.08840222152523
STARLINK-3237           
1 49726U 21115C   24250.53043457  .00597548  16171-3  13577-2 0  9994
2 49726  53.1932  62.5439 0020152 292.2327 172.5116 15.96569168154187
STARLINK-3242           
1 49727U 21115D   24249.83745773  .00000003  00000+0  18249-4 0  9994
2 49727  53.2175 107.5018 0001344 103.4950 256.6192 15.08836265153509
STARLINK-3240           
1 49728U 21115E   24249.84113094  .00001760  00000+0  12862-3 0  9996
2 49728  53.2158 107.4830 0001451 102.1154 258.0001 15.08844210153495
STARLINK-3251           
1 49729U 21115F   24249.90000523 -.00000026  00000+0  16450-4 0  9999
2 49729  53.2167 107.1041 0001347 104.5669 255.5472 15.08833805153502
STARLINK-3249           
1 49730U 21115G   24249.87059375  .00011047  00000+0  71072-3 0  9990
2 49730  53.2146 107.5451 0001814  81.0078 279.1119 15.08859256152385
STARLINK-3246           
1 49732U 21115J   24249.87795132  .00000469  00000+0  47569-4 0  9991
2 49732  53.2162 107.4695 0001635  84.6583 275.4595 15.08847494152383
STARLINK-3252           
1 49733U 21115K   24249.92210070  .00000248  00000+0  33700-4 0  9998
2 49733  53.2157 107.1220 0001474  81.3869 278.7290 15.08833195152393
STARLINK-3238           
1 49734U 21115L   24250.53758094  .00000712  00000+0  62852-4 0  9997
2 49734  53.2160  94.3839 0001251  97.3984 262.7151 15.08834933153749
STARLINK-3113           
1 49735U 21115M   24250.04719324  .00006040  00000+0  39703-3 0  9995
2 49735  53.2153 106.4446 0001071  94.4957 265.6158 15.08857960153529
STARLINK-3148           
1 49736U 21115N   24250.00397982  .00012302  00000+0  79088-3 0  9992
2 49736  53.2178  96.6379 0001767  92.6857 267.4337 15.08783633153662
STARLINK-3225           
1 49737U 21115P   24249.81261827 -.00000274  00000+0  87953-6 0  9997
2 49737  53.2165  97.6101 0001467 105.9171 254.1983 15.08834806152520
STARLINK-3143           
1 49738U 21115Q   24249.90559769  .00000637  00000+0  58119-4 0  9995
2 49738  53.2160  97.4007 0001429 117.6127 242.5011 15.08840055152535
STARLINK-3155           
1 49739U 21115R   24249.93313613  .00002321  00000+0  16383-3 0  9993
2 49739  53.2154 107.0724 0001243  83.9271 276.1863 15.08842374152390
STARLINK-3226           
1 49740U 21115S   24249.89453054  .00001668  00000+0  12284-3 0  9993
2 49740  53.2161  97.2189 0001450  73.7931 286.3221 15.08841371153641
STARLINK-3244           
1 49741U 21115T   24249.89085835  .00005211  00000+0  34543-3 0  9992
2 49741  53.2165  97.2712 0001403  83.4850 276.6302 15.08820131153647
STARLINK-3202           
1 49742U 21115U   24250.56703322  .00017949  00000+0  11440-2 0  9998
2 49742  53.2164  94.2282 0001532  82.3407 277.7759 15.08805947153742
STARLINK-3239           
1 49743U 21115V   24249.88716662  .00000394  00000+0  42847-4 0  9996
2 49743  53.2155  97.2131 0001269  99.1174 260.9962 15.08834722152532
STARLINK-3231           
1 49744U 21115W   24249.90187992  .00001864  00000+0  13516-3 0  9991
2 49744  53.2147  97.1070 0001438 111.0362 249.0784 15.08841412152530
STARLINK-3241           
1 49745U 21115X   24250.56061393  .00008499  00000+0  55195-3 0  9992
2 49745  53.2170  94.2315 0001429  86.8975 273.2180 15.08805209153743
STARLINK-3233           
1 49746U 21115Y   24249.85309344  .00001097  00000+0  87022-4 0  9996
2 49746  53.2161  97.4326 0001289  92.9542 267.1597 15.08841548152528
STARLINK-3247           
1 49747U 21115Z   24249.84205678  .00002299  00000+0  16245-3 0  9994
2 49747  53.2164  97.4769 0001525  75.2708 284.8453 15.08842273152527
STARLINK-3248           
1 49748U 21115AA  24249.88616561  .00001415  00000+0  10694-3 0  9997
2 49748  53.2175  96.8584 0001304  92.3605 267.7536 15.08840904152542
STARLINK-3250           
1 49749U 21115AB  24250.53488435 -.00000012  00000+0  17350-4 0  9999
2 49749  53.2170  94.6136 0001293 104.6967 255.4168 15.08832382153730
STARLINK-3236           
1 49750U 21115AC  24249.86877146  .00000836  00000+0  70610-4 0  9997
2 49750  53.2162  97.3717 0001311 100.0912 260.0228 15.08839754152535
STARLINK-3229           
1 49751U 21115AD  24249.84940850  .00000229  00000+0  32502-4 0  9993
2 49751  53.2165  97.3713 0001427  78.8704 281.2449 15.08840430152537
STARLINK-3209           
1 49752U 21115AE  24249.81817522  .00000474  00000+0  47862-4 0  9997
2 49752  53.2167  87.5990 0001245  91.3271 268.7863 15.08839049152663
STARLINK-3200           
1 49753U 21115AF  24249.79789725  .00003410  00000+0  23222-3 0  9994
2 49753  53.2151  97.6800 0001413 101.1935 258.9216 15.08838309152529
STARLINK-3193           
1 49754U 21115AG  24249.82090247  .00004176  00000+0  28020-3 0  9994
2 49754  53.2162  87.6794 0001539  74.0667 286.0494 15.08852912152663
STARLINK-3210           
1 49755U 21115AH  24249.87613721  .00000405  00000+0  43553-4 0  9998
2 49755  53.2178  97.3772 0001465  98.1870 261.9288 15.08840236152531
STARLINK-3207           
1 49756U 21115AJ  24250.55689215 -.00003533  00000+0 -20387-3 0  9993
2 49756  53.2165  84.2719 0001249  78.8297 281.2835 15.08861671153880
STARLINK-3197           
1 49757U 21115AK  24249.82183994  .00001752  00000+0  12810-3 0  9996
2 49757  53.2170  87.5832 0001270  96.0290 264.0847 15.08856115152662
STARLINK-3194           
1 49758U 21115AL  24249.83561413  .00000365  00000+0  41003-4 0  9990
2 49758  53.2176  87.5058 0001232 104.8547 255.2582 15.08839464152666
STARLINK-3204           
1 49759U 21115AM  24249.82457525  .00003622  00000+0  24551-3 0  9995
2 49759  53.2148  87.5613 0001254  92.1523 267.9613 15.08844479152667
STARLINK-3199           
1 49760U 21115AN  24249.84297632  .00000240  00000+0  33139-4 0  9996
2 49760  53.2171  87.4765 0001335 104.1482 255.9658 15.08837809152676
STARLINK-3203           
1 49761U 21115AP  24249.83193255  .00000872  00000+0  72858-4 0  9994
2 49761  53.2171  87.5234 0001406 105.6439 254.4708 15.08841591152668
STARLINK-3195           
1 49762U 21115AQ  24249.78409656  .00000560  00000+0  53305-4 0  9994
2 49762  53.2161  87.7418 0001379 100.1497 259.9651 15.08838158152669
STARLINK-3198           
1 49763U 21115AR  24249.77305493  .00004067  00000+0  27345-3 0  9998
2 49763  53.2159  87.7924 0001324 100.8064 259.3077 15.08840539152668
STARLINK-3227           
1 49765U 21115AT  24249.84762540 -.00001248  00000+0 -60358-4 0  9990
2 49765  53.2169  87.4670 0001290  90.9612 269.1528 15.08826446152678
STARLINK-3190           
1 49766U 21115AU  24249.86233789  .00000313  00000+0  37780-4 0  9994
2 49766  53.2172  87.4024 0001240  95.7257 264.3877 15.08834898152673
STARLINK-3192           
1 49767U 21115AV  24249.78777891  .00001069  00000+0  85235-4 0  9990
2 49767  53.2173  87.7231 0001210 102.7505 257.3623 15.08835604152666
STARLINK-3196           
1 49768U 21115AW  24250.53113418 -.00000103  00000+0  11617-4 0  9997
2 49768  53.2158  84.3888 0001275 105.4194 254.6939 15.08837803153884
STARLINK-3208           
1 49769U 21115AX  24249.86969739  .00002412  00000+0  16955-3 0  9990
2 49769  53.2170  87.4063 0001201  89.0205 271.0925 15.08843374152671
